{
    "links": {
        "self": "http://www.neowsapp.com/rest/v1/neo/3836712?api_key=iIulBulltgU6a56xZRHN4H3l9WmuAYTsLGpBGhQ2"
    },
    "id": "3836712",
    "neo_reference_id": "3836712",
    "name": "(2018 XD)",
    "designation": "2018 XD",
    "nasa_jpl_url": "http://ssd.jpl.nasa.gov/sbdb.cgi?sstr=3836712",
    "absolute_magnitude_h": 23.1,
    "estimated_diameter": {
        "kilometers": {
            "estimated_diameter_min": 0.063760979,
            "estimated_diameter_max": 0.1425738833
        },
        "meters": {
            "estimated_diameter_min": 63.7609789875,
            "estimated_diameter_max": 142.5738833281
        },
        "miles": {
            "estimated_diameter_min": 0.0396192233,
            "estimated_diameter_max": 0.0885912765
        },
        "feet": {
            "estimated_diameter_min": 209.1895703015,
            "estimated_diameter_max": 467.7620993781
        }
    },
    "is_potentially_hazardous_asteroid": false,
    "close_approach_data": [
        {
            "close_approach_date": "2013-12-16",
            "close_approach_date_full": "2013-Dec-16 08:15",
            "epoch_date_close_approach": 1387181700000,
            "relative_velocity": {
                "kilometers_per_second": "23.4503484466",
                "kilometers_per_hour": "84421.2544079396",
                "miles_per_hour": "52456.0844403112"
            },
            "miss_distance": {
                "astronomical": "0.2949404618",
                "lunar": "114.7318396402",
                "kilometers": "44122464.862096366",
                "miles": "27416428.3486312108"
            },
            "orbiting_body": "Earth"
        },
        {
            "close_approach_date": "2018-12-01",
            "close_approach_date_full": "2018-Dec-01 19:13",
            "epoch_date_close_approach": 1543691580000,
            "relative_velocity": {
                "kilometers_per_second": "16.1073273757",
                "kilometers_per_hour": "57986.3785526323",
                "miles_per_hour": "36030.4806067731"
            },
            "miss_distance": {
                "astronomical": "0.0449728031",
                "lunar": "17.4944204059",
                "kilometers": "6727835.551689397",
                "miles": "4180483.1602397986"
            },
            "orbiting_body": "Earth"
        }
    ],
    "orbital_data": {
        "orbit_id": "10",
        "orbit_determination_date": "2019-01-21 07:51:11",
        "first_observation_date": "2018-12-03",
        "last_observation_date": "2018-12-28",
        "data_arc_in_days": 25,
        "observations_used": 71,
        "orbit_uncertainty": "7",
        "minimum_orbit_intersection": ".0090906",
        "jupiter_tisserand_invariant": "3.804",
        "epoch_osculation": "2459000.5",
        "eccentricity": ".5658454871349891",
        "semi_major_axis": "1.834353591348148",
        "inclination": "8.692051437598286",
        "ascending_node_longitude": "242.5311260515784",
        "orbital_period": "907.4506339126381",
        "perihelion_distance": ".7963928898739386",
        "perihelion_argument": "121.6401761002616",
        "aphelion_distance": "2.872314292822358",
        "perihelion_time": "2459319.651064034326",
        "mean_anomaly": "233.3877317855084",
        "mean_motion": ".3967157953791874",
        "equinox": "J2000",
        "orbit_class": {
            "orbit_class_type": "APO",
            "orbit_class_description": "Near-Earth asteroid orbits which cross the Earth’s orbit similar to that of 1862 Apollo",
            "orbit_class_range": "a (semi-major axis) > 1.0 AU; q (perihelion) < 1.017 AU"
        }
    },
    "is_sentry_object": false
}